ONEWEB-0033             
1 45142U 20008M   24238.56048386  .00000656  00000+0  18425-2 0  9993
2 45142  87.8985 167.7393 0001984  83.1250 277.0103 13.10374629221696
ONEWEB-0035             
1 45143U 20008N   24238.51564696 -.00000242  00000+0 -72844-3 0  9995
2 45143  87.8987 167.7335 0001934  79.5790 280.5555 13.10369795221416
ONEWEB-0036             
1 45144U 20008P   24238.50569996  .00000209  00000+0  56279-3 0  9998
2 45144  87.8983 167.6897 0002182  71.0777 289.0587 13.10369052221845
ONEWEB-0038             
1 45145U 20008Q   24238.50313993 -.00000056  00000+0 -19317-3 0  9997
2 45145  87.8996 152.6100 0001358  56.1358 303.9899 13.11419335223737
ONEWEB-0039             
1 45146U 20008R   24238.56380541  .00000688  00000+0  19334-2 0  9994
2 45146  87.8987 167.6966 0002115  64.7758 295.3588 13.10373837221647
ONEWEB-0040             
1 45147U 20008S   24238.55716085  .00000526  00000+0  14710-2 0  9994
2 45147  87.8996 167.7039 0001953  74.2466 285.8876 13.10375699221340
ONEWEB-0043             
1 45149U 20008U   24238.55882085  .00000617  00000+0  17313-2 0  9993
2 45149  87.8990 167.7066 0002146  63.1011 297.0335 13.10375973221669
ONEWEB-0044             
1 45150U 20008V   24238.51067271 -.00000036  00000+0 -13831-3 0  9992
2 45150  87.8985 167.7109 0002030  68.3606 291.7737 13.10369031221959
